[{"OBJECT_NAME":"YAOGAN-36 04C","OBJECT_ID":"2022-171E","EPOCH":"2026-03-09T18:55:44.889600","MEAN_MOTION":15.29852307,"ECCENTRICITY":0.00066848,"INCLINATION":34.9797,"RA_OF_ASC_NODE":96.6578,"ARG_OF_PERICENTER":275.3761,"MEAN_ANOMALY":84.6192,"EPHEMERIS_TYPE":0,"CLASSIFICATION_TYPE":"U","NORAD_CAT_ID":54750,"ELEMENT_SET_NO":999,"REV_AT_EPOCH":18024,"BSTAR":0.00054591902,"MEAN_MOTION_DOT":0.00016196,"MEAN_MOTION_DDOT":0},{"OBJECT_NAME":"STARLINK-30313","OBJECT_ID":"2023-124P","EPOCH":"2026-03-09T14:36:14.959872","MEAN_MOTION":15.30181238,"ECCENTRICITY":7.19e-5,"INCLINATION":53.1591,"RA_OF_ASC_NODE":207.3601,"ARG_OF_PERICENTER":76.3513,"MEAN_ANOMALY":283.7568,"EPHEMERIS_TYPE":0,"CLASSIFICATION_TYPE":"U","NORAD_CAT_ID":57676,"ELEMENT_SET_NO":999,"REV_AT_EPOCH":14355,"BSTAR":9.3127e-5,"MEAN_MOTION_DOT":2.399e-5,"MEAN_MOTION_DDOT":0}]
