YAOGAN-36 04C           
1 54750U 22171E   26068.78871400  .00016196  00000+0  54592-3 0  9991
2 54750  34.9797  96.6578 0006685 275.3761  84.6192 15.29852307180246
STARLINK-30313          
1 57676U 23124P   26068.60850648  .00002399  00000+0  93127-4 0  9990
2 57676  53.1591 207.3601 0000719  76.3513 283.7568 15.30181238143557
